ONEWEB-0018             
1 45434U 20020L   25020.35102157  .00000654  00000+0  18104-2 0  9997
2 45434  87.8908 123.2797 0001715 110.2886 249.8426 13.11416211235414
ONEWEB-0083             
1 45435U 20020M   25020.26455233  .00000632  00000+0  17459-2 0  9992
2 45435  87.8911 123.2799 0001740 105.6631 254.4689 13.11417475235444
ONEWEB-0095             
1 45436U 20020N   25020.33250369  .00000368  00000+0  10015-2 0  9991
2 45436  87.8908 123.2958 0002110  86.2015 273.9354 13.11418284235455
ONEWEB-0092             
1 45437U 20020P   25020.30437520 -.00000416  00000+0 -12109-2 0  9997
2 45437  87.8906 123.2876 0001697  97.5273 262.6048 13.11417254235566
ONEWEB-0085             
1 45438U 20020Q   25020.33406407  .00000498  00000+0  13685-2 0  9999
2 45438  87.8911 123.2908 0001674 108.6000 251.5310 13.11418429235458
ONEWEB-0096             
1 45439U 20020R   25020.34254128  .00000646  00000+0  17876-2 0  9993
2 45439  87.8910 123.2570 0001470 112.9690 247.1593 13.11416739235445
ONEWEB-0037             
1 45440U 20020S   25020.32388210  .00000012  00000+0 -75403-6 0  9995
2 45440  87.8904 123.2317 0001668 102.7214 257.4100 13.11419102235475
ONEWEB-0042             
1 45441U 20020T   25020.33222697  .00000324  00000+0  87954-3 0  9999
2 45441  87.8909 123.2708 0001590 108.1940 251.9361 13.11418304235443
